OBJECT_NAME,OBJECT_ID,EPOCH,MEAN_MOTION,ECCENTRICITY,INCLINATION,RA_OF_ASC_NODE,ARG_OF_PERICENTER,MEAN_ANOMALY,EPHEMERIS_TYPE,CLASSIFICATION_TYPE,NORAD_CAT_ID,ELEMENT_SET_NO,REV_AT_EPOCH,BSTAR,MEAN_MOTION_DOT,MEAN_MOTION_DDOT
SIRION PATHFINDER-2,2018-099B,2026-05-12T13:36:16.521696,15.14213536,.0010261,97.4283,182.4749,68.9121,291.3207,0,U,43759,999,40723,.1751E-3,.3136E-4,0
CORVUS BC4,2018-099K,2026-05-12T20:33:08.341920,15.12199063,.00099341,97.4099,176.8737,118.9467,241.2761,0,U,43767,999,40706,.17561932E-3,.2972E-4,0
M2 PATHFINDER,2020-037E,2026-05-12T19:10:58.644768,15.04518769,.00101296,97.8165,323.6354,272.8977,87.1089,0,U,45727,999,32017,.12418721E-3,.1677E-4,0
NETSAT-4,2020-068U,2026-05-12T21:59:22.346304,15.42669588,.00076508,97.8617,138.3574,90.5575,269.6547,0,U,46504,999,31033,.26370028E-3,.11412E-3,0
NETSAT-3,2020-068V,2026-05-12T18:21:36.492480,15.41436193,.00075484,97.8666,136.4576,103.6114,256.5972,0,U,46505,999,31022,.29114417E-3,.12101E-3,0
NETSAT-1,2020-068W,2026-05-12T21:57:30.560256,15.33763006,.00067451,97.8750,131.3565,122.3403,237.8492,0,U,46506,999,30989,.25720677E-3,.8316E-4,0
NETSAT-2,2020-068X,2026-05-12T22:28:03.682272,15.44472760,.00061892,97.8632,138.1550,111.3110,248.8798,0,U,46507,999,31029,.3137959E-3,.14452E-3,0
GREENCUBE (IO-117),2022-080E,2026-05-12T13:02:43.634112,6.42583333,.0008862,70.1440,310.6463,297.7055,62.2705,0,U,53109,999,8977,0,-.3E-7,0
SITRO-AIS 5 (KATYS),2023-091L,2026-05-12T22:14:22.074432,15.28624878,.00107146,97.5084,196.5105,219.8145,140.2309,0,U,57176,999,15895,.27833615E-3,.7685E-4,0
SITRO-AIS 6 (CHIRKIN),2023-091AC,2026-05-12T22:58:23.637792,15.25250412,.0010875,97.5090,195.8428,223.5028,136.5353,0,U,57192,999,15891,.15144557E-3,.3738E-4,0
SITRO-AIS 8 (ANOKHIN),2023-091AD,2026-05-12T22:30:59.548608,15.31157509,.00100303,97.5079,197.9720,214.9141,145.1443,0,U,57193,999,15905,.26996007E-3,.8058E-4,0
SITRO-AIS 7 (FARTUSHNIY),2023-091AE,2026-05-12T22:52:50.261664,15.24956316,.00106959,97.5088,195.6817,224.7015,135.3361,0,U,57194,999,15890,.1465377E-3,.3582E-4,0
SITRO-AIS 10 (BURDAEV),2023-091AK,2026-05-12T22:02:15.023616,15.37249725,.000705,97.5100,202.6538,186.2276,173.8882,0,U,57199,999,15934,.32244714E-3,.11694E-3,0
SITRO-AIS 9 (SHCHUKIN),2023-091AM,2026-05-12T22:24:50.259456,15.36797035,.00072522,97.5098,202.4263,186.9368,173.1776,0,U,57201,999,15933,.33895379E-3,.12119E-3,0
SITRO-AIS 12 (SMIRENNIY),2023-091AQ,2026-05-12T22:20:48.685920,15.37081921,.00070638,97.5111,202.8688,180.8949,179.2283,0,U,57204,999,15935,.34425094E-3,.12424E-3,0
SITRO-AIS 11 (SHEFFER),2023-091AU,2026-05-12T22:53:35.898144,15.37473884,.00069847,97.5109,203.1174,180.5814,179.5423,0,U,57208,999,15937,.34683467E-3,.12678E-3,0
SITRO-AIS 25,2024-039R,2026-05-12T22:20:26.276352,14.93260590,.01474756,95.3921,210.8691,91.4325,270.3799,0,U,59066,999,11946,.22112833E-3,.2833E-4,0
SITRO-AIS 26,2024-039S,2026-05-12T22:15:35.212032,14.93063570,.01478117,95.3925,210.7717,91.9706,269.8454,0,U,59067,999,11945,.21627783E-3,.2758E-4,0
SITRO-AIS 27,2024-039T,2026-05-12T23:23:20.008032,14.93475622,.01470023,95.3924,211.0593,90.5269,271.2803,0,U,59068,999,11948,.26034261E-3,.3357E-4,0
SITRO-AIS 28,2024-039U,2026-05-12T21:15:32.315616,14.93508335,.01467877,95.3925,211.0437,90.6988,271.1059,0,U,59071,999,11947,.25928752E-3,.3344E-4,0
GRBBETA,2024-128C,2026-05-12T21:48:21.664512,15.06341447,.00453127,61.9907,340.0140,127.3839,233.1393,0,U,60237,999,10095,.19243454E-3,.2688E-4,0
OOV-CUBE (TUBSAT-30),2024-128F,2026-05-12T22:05:45.017952,15.02588891,.00489242,61.9950,348.5294,126.0791,234.4846,0,U,60240,999,10081,.1231337E-3,.1471E-4,0
ROBUSTA-3A (MEDITERRANEE),2024-128J,2026-05-12T22:30:38.579328,15.11107188,.0046044,61.9871,332.8447,121.1972,239.3649,0,U,60243,999,10109,.30883823E-3,.5104E-4,0
LASARSAT,2024-247Q,2026-05-12T14:43:31.718784,15.44141719,.0004704,44.9736,101.7573,116.8398,243.2973,0,U,62391,999,7781,.44601E-3,.20586E-3,0
CROCUBE,2024-247T,2026-05-12T07:52:23.156256,15.45714762,.0004332,44.9711,101.2241,116.6031,243.5302,0,U,62394,999,7779,.46807E-3,.22835E-3,0
FORESAIL-1 PRIME,2025-276DS,2026-05-12T22:33:51.200352,15.18368177,.00018,97.4209,206.8634,188.1800,171.9405,0,U,66778,999,2505,.15540944E-3,.3126E-4,0
KNACKSAT-2,1998-067XZ,2026-05-12T22:50:03.929568,15.56875611,.00125212,51.6274,111.2743,68.6895,291.5432,0,U,67683,999,1478,.41696017E-3,.3026E-3,0
